{
  "type": "FeatureCollection",
  "features": [
    {
      "type": "Feature",
      "properties": {
        "norad_id": 37846,
        "name": "GSAT0101 (GALILEO-PFM)",
        "group": "gnss",
        "lat": -31.07273851036078,
        "lon": -36.373980665178614,
        "alt_km": 23216.594302379784,
        "timestamp": "2025-12-19T06:59:44.150285+00:00",
        "meta_object_name": "GSAT0101 (GALILEO-PFM)",
        "meta_object_id": "2011-060A",
        "meta_epoch": "2025-12-18T04:19:25.193280",
        "meta_mean_motion": 1.70475831,
        "meta_eccentricity": 0.00031642,
        "meta_inclination": 57.0516,
        "meta_ra_of_asc_node": 346.6723,
        "meta_arg_of_pericenter": 318.7092,
        "meta_mean_anomaly": 41.2814,
        "meta_ephemeris_type": 0,
        "meta_classification_type": "U",
        "meta_norad_cat_id": 37846,
        "meta_element_set_no": 999,
        "meta_rev_at_epoch": 8803,
        "meta_bstar": 0,
        "meta_mean_motion_dot": -7.6e-07,
        "meta_mean_motion_ddot": 0,
        "tle_line1": "1 37846U 11060A   25352.18015270 -.00000076  00000+0  00000+0 0  9999",
        "tle_line2": "2 37846  57.0516 346.6723 0003164 318.7092  41.2814  1.70475831 88034"
      },
      "geometry": {
        "type": "Point",
        "coordinates": [
          -36.373980665178614,
          -31.07273851036078
        ]
      }
    },
    {
      "type": "Feature",
      "properties": {
        "norad_id": 37847,
        "name": "GSAT0102 (GALILEO-FM2)",
        "group": "gnss",
        "lat": 6.325213758646835,
        "lon": -9.240991696264246,
        "alt_km": 23212.921666691967,
        "timestamp": "2025-12-19T06:59:44.150298+00:00",
        "meta_object_name": "GSAT0102 (GALILEO-FM2)",
        "meta_object_id": "2011-060B",
        "meta_epoch": "2025-12-18T09:18:10.933920",
        "meta_mean_motion": 1.7047603,
        "meta_eccentricity": 0.0005099,
        "meta_inclination": 57.0522,
        "meta_ra_of_asc_node": 346.6671,
        "meta_arg_of_pericenter": 311.9548,
        "meta_mean_anomaly": 220.8374,
        "meta_ephemeris_type": 0,
        "meta_classification_type": "U",
        "meta_norad_cat_id": 37847,
        "meta_element_set_no": 999,
        "meta_rev_at_epoch": 8804,
        "meta_bstar": 0,
        "meta_mean_motion_dot": -7.6e-07,
        "meta_mean_motion_ddot": 0,
        "tle_line1": "1 37847U 11060B   25352.38762655 -.00000076  00000+0  00000+0 0  9998",
        "tle_line2": "2 37847  57.0522 346.6671 0005099 311.9548 220.8374  1.70476030 88043"
      },
      "geometry": {
        "type": "Point",
        "coordinates": [
          -9.240991696264246,
          6.325213758646835
        ]
      }
    },
    {
      "type": "Feature",
      "properties": {
        "norad_id": 37867,
        "name": "COSMOS 2476 (744)",
        "group": "gnss",
        "lat": 30.619085770898664,
        "lon": 94.83799736340298,
        "alt_km": 19184.354691650427,
        "timestamp": "2025-12-19T06:59:44.150317+00:00",
        "meta_object_name": "COSMOS 2476 (744)",
        "meta_object_id": "2011-064A",
        "meta_epoch": "2025-12-18T07:35:13.446240",
        "meta_mean_motion": 2.13103876,
        "meta_eccentricity": 0.00242895,
        "meta_inclination": 65.1659,
        "meta_ra_of_asc_node": 78.9826,
        "meta_arg_of_pericenter": 234.6288,
        "meta_mean_anomaly": 131.1641,
        "meta_ephemeris_type": 0,
        "meta_classification_type": "U",
        "meta_norad_cat_id": 37867,
        "meta_element_set_no": 999,
        "meta_rev_at_epoch": 10991,
        "meta_bstar": 0,
        "meta_mean_motion_dot": -4e-07,
        "meta_mean_motion_ddot": 0,
        "tle_line1": "1 37867U 11064A   25352.31612785 -.00000040  00000+0  00000+0 0  9996",
        "tle_line2": "2 37867  65.1659  78.9826 0024289 234.6288 131.1641  2.13103876109911"
      },
      "geometry": {
        "type": "Point",
        "coordinates": [
          94.83799736340298,
          30.619085770898664
        ]
      }
    },
    {
      "type": "Feature",
      "properties": {
        "norad_id": 37868,
        "name": "COSMOS 2477 (745)",
        "group": "gnss",
        "lat": -31.299680436417763,
        "lon": -84.64409412748968,
        "alt_km": 19083.121574129356,
        "timestamp": "2025-12-19T06:59:44.150345+00:00",
        "meta_object_name": "COSMOS 2477 (745)",
        "meta_object_id": "2011-064B",
        "meta_epoch": "2025-12-18T12:02:16.818720",
        "meta_mean_motion": 2.13102921,
        "meta_eccentricity": 0.00212144,
        "meta_inclination": 65.1723,
        "meta_ra_of_asc_node": 79.0538,
        "meta_arg_of_pericenter": 234.8854,
        "meta_mean_anomaly": 94.0943,
        "meta_ephemeris_type": 0,
        "meta_classification_type": "U",
        "meta_norad_cat_id": 37868,
        "meta_element_set_no": 999,
        "meta_rev_at_epoch": 10990,
        "meta_bstar": 0,
        "meta_mean_motion_dot": -3.8e-07,
        "meta_mean_motion_ddot": 0,
        "tle_line1": "1 37868U 11064B   25352.50158355 -.00000038  00000+0  00000+0 0  9993",
        "tle_line2": "2 37868  65.1723  79.0538 0021214 234.8854  94.0943  2.13102921109903"
      },
      "geometry": {
        "type": "Point",
        "coordinates": [
          -84.64409412748968,
          -31.299680436417763
        ]
      }
    },
    {
      "type": "Feature",
      "properties": {
        "norad_id": 37869,
        "name": "COSMOS 2475 (743)",
        "group": "gnss",
        "lat": 8.511563070739369,
        "lon": -104.90627259156282,
        "alt_km": 19115.370376996547,
        "timestamp": "2025-12-19T06:59:44.150358+00:00",
        "meta_object_name": "COSMOS 2475 (743)",
        "meta_object_id": "2011-064C",
        "meta_epoch": "2025-12-18T05:19:14.657088",
        "meta_mean_motion": 2.13101609,
        "meta_eccentricity": 0.0026433,
        "meta_inclination": 65.1789,
        "meta_ra_of_asc_node": 79.0834,
        "meta_arg_of_pericenter": 248.8457,
        "meta_mean_anomaly": 181.3342,
        "meta_ephemeris_type": 0,
        "meta_classification_type": "U",
        "meta_norad_cat_id": 37869,
        "meta_element_set_no": 999,
        "meta_rev_at_epoch": 10991,
        "meta_bstar": 0,
        "meta_mean_motion_dot": -4.1e-07,
        "meta_mean_motion_ddot": 0,
        "tle_line1": "1 37869U 11064C   25352.22169742 -.00000041  00000+0  00000+0 0  9999",
        "tle_line2": "2 37869  65.1789  79.0834 0026433 248.8457 181.3342  2.13101609109913"
      },
      "geometry": {
        "type": "Point",
        "coordinates": [
          -104.90627259156282,
          8.511563070739369
        ]
      }
    },
    {
      "type": "Feature",
      "properties": {
        "norad_id": 37948,
        "name": "BEIDOU-2 IGSO-5 (C10)",
        "group": "gnss",
        "lat": 9.80001267633807,
        "lon": -77.31121488701035,
        "alt_km": 36183.797727980455,
        "timestamp": "2025-12-19T06:59:44.150371+00:00",
        "meta_object_name": "BEIDOU-2 IGSO-5 (C10)",
        "meta_object_id": "2011-073A",
        "meta_epoch": "2025-12-18T16:23:51.533376",
        "meta_mean_motion": 1.00290152,
        "meta_eccentricity": 0.01099443,
        "meta_inclination": 48.0091,
        "meta_ra_of_asc_node": 273.7856,
        "meta_arg_of_pericenter": 222.3449,
        "meta_mean_anomaly": 290.7013,
        "meta_ephemeris_type": 0,
        "meta_classification_type": "U",
        "meta_norad_cat_id": 37948,
        "meta_element_set_no": 999,
        "meta_rev_at_epoch": 5132,
        "meta_bstar": 0,
        "meta_mean_motion_dot": -1.7e-06,
        "meta_mean_motion_ddot": 0,
        "tle_line1": "1 37948U 11073A   25352.68323534 -.00000170  00000+0  00000+0 0  9991",
        "tle_line2": "2 37948  48.0091 273.7856 0109944 222.3449 290.7013  1.00290152 51329"
      },
      "geometry": {
        "type": "Point",
        "coordinates": [
          -77.31121488701035,
          9.80001267633807
        ]
      }
    },
    {
      "type": "Feature",
      "properties": {
        "norad_id": 37951,
        "name": "LUCH 5A (SDCM/PRN 140)",
        "group": "gnss",
        "lat": -8.061108014650245,
        "lon": 0.3540136500316512,
        "alt_km": 35789.6065207034,
        "timestamp": "2025-12-19T06:59:44.150383+00:00",
        "meta_object_name": "LUCH 5A (SDCM/PRN 140)",
        "meta_object_id": "2011-074B",
        "meta_epoch": "2025-12-18T22:39:00.862272",
        "meta_mean_motion": 1.00269042,
        "meta_eccentricity": 0.00050851,
        "meta_inclination": 8.2948,
        "meta_ra_of_asc_node": 76.4925,
        "meta_arg_of_pericenter": 189.1634,
        "meta_mean_anomaly": 328.979,
        "meta_ephemeris_type": 0,
        "meta_classification_type": "U",
        "meta_norad_cat_id": 37951,
        "meta_element_set_no": 999,
        "meta_rev_at_epoch": 5124,
        "meta_bstar": 0,
        "meta_mean_motion_dot": -3.1e-07,
        "meta_mean_motion_ddot": 0,
        "tle_line1": "1 37951U 11074B   25352.94375998 -.00000031  00000+0  00000+0 0  9992",
        "tle_line2": "2 37951   8.2948  76.4925 0005085 189.1634 328.9790  1.00269042 51245"
      },
      "geometry": {
        "type": "Point",
        "coordinates": [
          0.3540136500316512,
          -8.061108014650245
        ]
      }
    }
  ]
}